IRIDIUM 39              
1 25042U 97069D   25271.76434087  .00001190  00000+0  30597-3 0  9997
2 25042  86.3977 166.7706 0016710 327.3118  32.7050 14.49351134463968
IRIDIUM 38              
1 25043U 97069E   25271.77002712  .00000928  00000+0  29931-3 0  9993
2 25043  86.4030 189.6076 0003949 100.2075 259.9569 14.38209953460845
IRIDIUM 42              
1 25077U 97077A   25271.76427321  .00000938  00000+0  31355-3 0  9999
2 25077  86.4030 195.8993 0002739  98.2216 261.9291 14.36438654456062
IRIDIUM 44              
1 25078U 97077B   25271.85593495  .00000860  00000+0  26515-3 0  9992
2 25078  86.4034 177.5370 0003852  67.7923 292.3685 14.40333642458621
IRIDIUM 45              
1 25104U 97082A   25271.72773790  .00032679  00000+0  10618-2 0  9991
2 25104  86.3615 357.4815 0105980 302.9423  56.1665 15.26393466467812
IRIDIUM 24              
1 25105U 97082B   25271.76462581  .00001281  00000+0  38278-3 0  9997
2 25105  86.3929  36.3379 0013444  95.3300 264.9434 14.42208169458140
IRIDIUM 51              
1 25262U 98018A   25271.72096468  .00092072  00000+0  15648-2 0  9997
2 25262  86.3849   4.2889 0072299 209.2965 150.4232 15.48161410462998
IRIDIUM 57              
1 25273U 98019B   25271.86432674  .00000629  00000+0  21002-3 0  9997
2 25273  86.3907 101.8085 0002206  89.1336 271.0114 14.35960224439667
